[
    {
        "Altitude(m)": 605470.7806569904,
        "Argument of Periapsis(deg)": 0.0,
        "Eccentricity": 0.0,
        "Inclination(deg)": 60.0,
        "Latitude(deg)": 27.98817581690019,
        "Longitude(deg)": 32.26289075132895,
        "Mean Anomaly(deg)": -212.7273,
        "RAAN(deg)": 330.0,
        "Satellite Name": "Test1 1461",
        "Satellite Number": 1461,
        "Semi-Major Axis(m)": 6980739.136638005,
        "Time(s)": 0
    },
    {
        "Altitude(m)": 605395.8188560607,
        "Argument of Periapsis(deg)": 0.00010418945913296404,
        "Eccentricity": 0.0,
        "Inclination(deg)": 60.0,
        "Latitude(deg)": 27.47386717059495,
        "Longitude(deg)": 32.61607964804668,
        "Mean Anomaly(deg)": -212.10719385453817,
        "RAAN(deg)": 329.9995799508602,
        "Satellite Name": "Test1 1461",
        "Satellite Number": 1461,
        "Semi-Major Axis(m)": 6980739.136638005,
        "Time(s)": 10
    }
]